[{"OBJECT_NAME":"FLOCK 4G-36","OBJECT_ID":"2025-009BU","EPOCH":"2026-03-09T16:58:27.533568","MEAN_MOTION":15.27209548,"ECCENTRICITY":0.00034736,"INCLINATION":97.4053,"RA_OF_ASC_NODE":151.0513,"ARG_OF_PERICENTER":324.2456,"MEAN_ANOMALY":35.855,"EPHEMERIS_TYPE":0,"CLASSIFICATION_TYPE":"U","NORAD_CAT_ID":62675,"ELEMENT_SET_NO":999,"REV_AT_EPOCH":6370,"BSTAR":0.00051121743,"MEAN_MOTION_DOT":0.00013573,"MEAN_MOTION_DDOT":0},{"OBJECT_NAME":"STARLINK-33933","OBJECT_ID":"2025-091K","EPOCH":"2026-03-09T23:04:51.703392","MEAN_MOTION":15.2757664,"ECCENTRICITY":7.156e-5,"INCLINATION":43,"RA_OF_ASC_NODE":44.0494,"ARG_OF_PERICENTER":244.8577,"MEAN_ANOMALY":115.22,"EPHEMERIS_TYPE":0,"CLASSIFICATION_TYPE":"U","NORAD_CAT_ID":63784,"ELEMENT_SET_NO":999,"REV_AT_EPOCH":4913,"BSTAR":0.00038943393,"MEAN_MOTION_DOT":0.00010469,"MEAN_MOTION_DDOT":0}]
